NORAD_CAT_ID,OBJECT_NAME,OBJECT_TYPE,EPOCH,MEAN_MOTION,ECCENTRICITY,INCLINATION,RA_OF_ASC_NODE,ARG_OF_PERICENTER,MEAN_ANOMALY,BSTAR,MEAN_MOTION_DOT,MEAN_MOTION_DDOT,TLE_LINE0,TLE_LINE1,TLE_LINE2,SEMIMAJOR_AXIS,PERIOD,APOGEE,PERIGEE,DECAYED
54794.0,STARLINK-5392,PAYLOAD,2024-06-16 18:33:48,15.12118948,2.76e-05,53.2189,342.4399,55.1158,304.9862,-8.4388e-05,-1.767e-05,0.0,0 STARLINK-5392,1 54794U 22175AN  24168.77348060 -.00001767  00000-0 -84388-4 0  9990,2 54794  53.2189 342.4399 0000276  55.1158 304.9862 15.12118948 84872,6907.876,95.231,529.932,529.55,0.0
54794.0,STARLINK-5392,PAYLOAD,2024-06-17 18:21:30,15.12108713,4.46e-05,53.2188,337.9644,41.3577,318.745,-2.5758e-05,-7.46e-06,0.0,0 STARLINK-5392,1 54794U 22175AN  24169.76493094 -.00000746  00000-0 -25758-4 0  9990,2 54794  53.2188 337.9644 0000446  41.3577 318.7450 15.12108713 82866,6907.907,95.231,530.08,529.464,0.0
54794.0,STARLINK-5392,PAYLOAD,2024-06-18 11:48:27,15.12109486,4.16e-05,53.2189,334.6846,44.3744,315.7283,5.3804e-05,6.4e-06,0.0,0 STARLINK-5392,1 54794U 22175AN  24170.49198778  .00000640  00000-0  53804-4 0  9997,2 54794  53.2189 334.6846 0000416  44.3744 315.7283 15.12109486 85133,6907.905,95.231,530.057,529.483,0.0
54794.0,STARLINK-5392,PAYLOAD,2024-06-18 18:09:10,15.12109717,3.74e-05,53.2191,333.4921,48.3044,311.7982,5.622e-05,6.83e-06,0.0,0 STARLINK-5392,1 54794U 22175AN  24170.75637358  .00000683  00000-0  56220-4 0  9990,2 54794  53.2191 333.4921 0000374  48.3044 311.7982 15.12109717 83011,6907.904,95.231,530.028,529.511,0.0
54794.0,STARLINK-5392,PAYLOAD,2024-06-19 14:46:30,15.12109478,2.48e-05,53.2193,329.6157,64.4221,295.6798,5.4661e-06,-2.02e-06,0.0,0 STARLINK-5392,1 54794U 22175AN  24171.61562896 -.00000202  00000-0  54661-5 0  9996,2 54794  53.2193 329.6157 0000248  64.4221 295.6798 15.12109478 85300,6907.905,95.231,529.941,529.599,0.0
54794.0,STARLINK-5392,PAYLOAD,2024-06-19 19:32:02,15.12112035,2.84e-05,53.2192,328.7215,70.8892,289.2132,2.4284e-05,1.26e-06,0.0,0 STARLINK-5392,1 54794U 22175AN  24171.81391636  .00000126  00000-0  24284-4 0  9991,2 54794  53.2192 328.7215 0000284  70.8892 289.2132 15.12112035 83176,6907.897,95.231,529.958,529.566,0.0
54794.0,STARLINK-5392,PAYLOAD,2024-06-20 14:34:11,15.12114821,3.36e-05,53.2195,325.1438,67.7282,292.3747,-1.9167e-05,-6.31e-06,0.0,0 STARLINK-5392,1 54794U 22175AN  24172.60707380 -.00000631  00000-0 -19167-4 0  9993,2 54794  53.2195 325.1438 0000336  67.7282 292.3747 15.12114821 85458,6907.889,95.231,529.986,529.522,0.0
54794.0,STARLINK-5392,PAYLOAD,2024-06-20 17:44:32,15.12115275,3.66e-05,53.2196,324.5478,69.8473,290.256,1.616e-05,-1.5e-07,0.0,0 STARLINK-5392,1 54794U 22175AN  24172.73926505 -.00000015  00000-0  16160-4 0  9994,2 54794  53.2196 324.5478 0000366  69.8473 290.2560 15.12115275 85470,6907.887,95.231,530.005,529.499,0.0
54794.0,STARLINK-5392,PAYLOAD,2024-06-21 09:36:19,15.12115856,4.57e-05,53.2198,321.5656,64.2431,295.861,1.8396e-05,2.4e-07,0.0,0 STARLINK-5392,1 54794U 22175AN  24173.40022897  .00000024  00000-0  18396-4 0  9992,2 54794  53.2198 321.5656 0000457  64.2431 295.8610 15.12115856 83415,6907.885,95.231,530.066,529.435,0.0
54794.0,STARLINK-5392,PAYLOAD,2024-06-21 14:21:51,15.12115774,4.62e-05,53.2198,320.6709,63.1821,296.9219,1.809e-05,1.8e-07,0.0,0 STARLINK-5392,1 54794U 22175AN  24173.59851835  .00000018  00000-0  18090-4 0  9998,2 54794  53.2198 320.6709 0000462  63.1821 296.9219 15.12115774 85600,6907.886,95.231,530.07,529.432,0.0
54794.0,STARLINK-5392,PAYLOAD,2024-06-21 17:32:13,15.12117402,4.59e-05,53.2197,320.0745,58.9814,301.1225,2.2174e-05,8.9e-07,0.0,0 STARLINK-5392,1 54794U 22175AN  24173.73071000  .00000089  00000-0  22174-4 0  9998,2 54794  53.2197 320.0745 0000459  58.9814 301.1225 15.12117402 85621,6907.881,95.231,530.063,529.429,0.0
54794.0,STARLINK-5392,PAYLOAD,2024-06-22 14:09:32,15.12116586,4.67e-05,53.2196,316.1977,59.461,300.6429,2.3947e-05,1.2e-06,0.0,0 STARLINK-5392,1 54794U 22175AN  24174.58996322  .00000120  00000-0  23947-4 0  9990,2 54794  53.2196 316.1977 0000467  59.4610 300.6429 15.12116586 85758,6907.883,95.231,530.071,529.426,0.0
54794.0,STARLINK-5392,PAYLOAD,2024-06-22 15:44:43,15.12117292,4.81e-05,53.2196,315.8995,59.1641,300.94,2.8785e-05,2.05e-06,0.0,0 STARLINK-5392,1 54794U 22175AN  24174.65605901  .00000205  00000-0  28785-4 0  9997,2 54794  53.2196 315.8995 0000481  59.1641 300.9400 15.12117292 83600,6907.881,95.231,530.078,529.414,0.0
54794.0,STARLINK-5392,PAYLOAD,2024-06-23 13:57:13,15.12118558,7.14e-05,53.2196,311.725,41.6302,318.4746,1.8759e-05,3e-07,0.0,0 STARLINK-5392,1 54794U 22175AN  24175.58140750  .00000030  00000-0  18759-4 0  9992,2 54794  53.2196 311.7250 0000714  41.6302 318.4746 15.12118558 85906,6907.877,95.231,530.235,529.249,0.0
54794.0,STARLINK-5392,PAYLOAD,2024-06-23 18:42:45,15.12121684,6.28e-05,53.2191,310.8297,46.9451,313.1595,4.1497e-05,4.26e-06,0.0,0 STARLINK-5392,1 54794U 22175AN  24175.77969302  .00000426  00000-0  41497-4 0  9999,2 54794  53.2191 310.8297 0000628  46.9451 313.1595 15.12121684 83770,6907.868,95.23,530.167,529.299,0.0
54794.0,STARLINK-5392,PAYLOAD,2024-06-24 12:09:43,15.12115657,6.43e-05,53.2194,307.5476,124.4657,235.6398,-9.3468e-06,-4.6e-06,0.0,0 STARLINK-5392,1 54794U 22175AN  24176.50675686 -.00000460  00000-0 -93468-5 0  9996,2 54794  53.2194 307.5476 0000643 124.4657 235.6398 15.12115657 83886,6907.886,95.231,530.195,529.307,0.0
54794.0,STARLINK-5392,PAYLOAD,2024-06-24 13:44:54,15.1211646,6.73e-05,53.2199,307.2499,114.3303,245.7761,-2.7816e-06,-3.46e-06,0.0,0 STARLINK-5392,1 54794U 22175AN  24176.57285279 -.00000346  00000-0 -27816-5 0  9995,2 54794  53.2199 307.2499 0000673 114.3303 245.7761 15.12116460 86053,6907.884,95.231,530.214,529.284,0.0
54794.0,STARLINK-5392,PAYLOAD,2024-06-24 15:20:05,15.12117205,6.29e-05,53.2197,306.9516,105.965,254.1413,2.0918e-06,-2.61e-06,0.0,0 STARLINK-5392,1 54794U 22175AN  24176.63894863 -.00000261  00000-0  20918-5 0  9998,2 54794  53.2197 306.9516 0000629 105.9650 254.1413 15.12117205 86066,6907.881,95.231,530.181,529.312,0.0
54794.0,STARLINK-5392,PAYLOAD,2024-06-25 13:32:35,15.1211672,7.02e-05,53.2194,302.7761,108.3538,251.7532,1.2973e-05,-7.1e-07,0.0,0 STARLINK-5392,1 54794U 22175AN  24177.56429651 -.00000071  00000-0  12973-4 0  9990,2 54794  53.2194 302.7761 0000702 108.3538 251.7532 15.12116720 86205,6907.883,95.231,530.233,529.263,0.0
54794.0,STARLINK-5392,PAYLOAD,2024-06-25 16:42:56,15.12118503,7.28e-05,53.2193,302.179,113.5495,246.5576,3.1348e-05,2.49e-06,0.0,0 STARLINK-5392,1 54794U 22175AN  24177.69648699  .00000249  00000-0  31348-4 0  9992,2 54794  53.2193 302.1790 0000728 113.5495 246.5576 15.12118503 84061,6907.877,95.231,530.245,529.24,0.0
54794.0,STARLINK-5392,PAYLOAD,2024-06-26 11:45:05,15.12111975,6.62e-05,53.2189,298.5998,120.5265,239.5794,-3.8182e-05,-9.62e-06,0.0,0 STARLINK-5392,1 54794U 22175AN  24178.48964997 -.00000962  00000-0 -38182-4 0  9999,2 54794  53.2189 298.5998 0000662 120.5265 239.5794 15.12111975 84187,6907.897,95.231,530.22,529.305,0.0
54794.0,STARLINK-5392,PAYLOAD,2024-06-26 16:30:37,15.1211592,8.29e-05,53.2184,297.7033,139.3578,220.7478,-1.8735e-05,-6.23e-06,0.0,0 STARLINK-5392,1 54794U 22175AN  24178.68793590 -.00000623  00000-0 -18735-4 0  9996,2 54794  53.2184 297.7033 0000829 139.3578 220.7478 15.12115920 86371,6907.885,95.231,530.323,529.178,0.0
54794.0,STARLINK-5392,PAYLOAD,2024-06-27 13:07:56,15.12120813,6.13e-05,53.2179,293.8277,124.1363,235.9689,-2.4036e-05,-7.16e-06,0.0,0 STARLINK-5392,1 54794U 22175AN  24179.54718431 -.00000716  00000-0 -24036-4 0  9997,2 54794  53.2179 293.8277 0000613 124.1363 235.9689 15.12120813 84341,6907.87,95.23,530.159,529.312,0.0
54794.0,STARLINK-5392,PAYLOAD,2024-06-27 16:18:18,15.12113078,5.84e-05,53.2185,293.2335,78.5796,281.5264,-2.6985e-05,-7.67e-06,0.0,0 STARLINK-5392,1 54794U 22175AN  24179.67938273 -.00000767  00000-0 -26985-4 0  9990,2 54794  53.2185 293.2335 0000584  78.5796 281.5264 15.12113078 84369,6907.894,95.231,530.162,529.356,0.0
54794.0,STARLINK-5392,PAYLOAD,2024-06-28 14:30:48,15.12114579,7.12e-05,53.2165,289.0607,30.9606,329.143,7.7246e-05,1.049e-05,0.0,0 STARLINK-5392,1 54794U 22175AN  24180.60472848  .00001049  00000-0  77246-4 0  9994,2 54794  53.2165 289.0607 0000712  30.9606 329.1430 15.12114579 86663,6907.889,95.231,530.246,529.263,0.0
54794.0,STARLINK-5392,PAYLOAD,2024-06-29 00:01:51,15.12132377,6.94e-05,53.2176,287.2692,59.1993,300.9069,0.000102,1.481e-05,0.0,0 STARLINK-5392,1 54794U 22175AN  24181.00129198  .00001481  00000-0  10200-3 0  9992,2 54794  53.2176 287.2692 0000694  59.1993 300.9069 15.12132377 84568,6907.835,95.23,530.18,529.221,0.0
54794.0,STARLINK-5392,PAYLOAD,2024-06-29 12:43:17,15.12124988,7.56e-05,53.2181,284.8841,66.4289,293.6784,0.00011398,1.69e-05,0.0,0 STARLINK-5392,1 54794U 22175AN  24181.53006238  .00001690  00000-0  11398-3 0  9990,2 54794  53.2181 284.8841 0000756  66.4289 293.6784 15.12124988 84641,6907.858,95.23,530.245,529.2,0.0
54794.0,STARLINK-5392,PAYLOAD,2024-06-29 23:49:32,15.12117128,7.58e-05,53.218,282.7981,75.2279,284.8798,6.7177e-05,8.73e-06,0.0,0 STARLINK-5392,1 54794U 22175AN  24181.99274170  .00000873  00000-0  67177-4 0  9991,2 54794  53.2180 282.7981 0000758  75.2279 284.8798 15.12117128 84714,6907.882,95.231,530.27,529.223,0.0
54794.0,STARLINK-5392,PAYLOAD,2024-06-30 10:55:48,15.12111742,0.0001744,53.2192,280.7084,77.4369,282.6819,-5.0682e-05,-1.18e-05,0.0,0 STARLINK-5392,1 54794U 22175AN  24182.45542711 -.00001180  00000-0 -50682-4 0  9999,2 54794  53.2192 280.7084 0001744  77.4369 282.6819 15.12111742 84782,6907.898,95.231,530.968,528.558,0.0
54794.0,STARLINK-5392,PAYLOAD,2024-06-30 12:30:59,15.12109239,0.0001001,53.2176,280.415,89.8251,270.2857,-8.5906e-05,-1.793e-05,0.0,0 STARLINK-5392,1 54794U 22175AN  24182.52152513 -.00001793  00000-0 -85906-4 0  9991,2 54794  53.2176 280.4150 0001001  89.8251 270.2857 15.12109239 86952,6907.906,95.231,530.462,529.079,0.0
